{
  "type": "FeatureCollection",
  "name": "iceberg_alley_aoi",
  "crs": { "type": "name", "properties": { "name": "urn:ogc:def:crs:OGC:1.3:CRS84" } },
  "features": [
    {
      "type": "Feature",
      "properties": {
        "name": "Iceberg Alley",
        "description": "NE Newfoundland coast, Bonavista to St. Anthony, extending ~150-200 km offshore. Land is removed later by the land mask."
      },
      "geometry": {
        "type": "Polygon",
        "coordinates": [[
          [-55.9, 51.9],
          [-55.9, 50.3],
          [-53.4, 48.4],
          [-51.5, 48.4],
          [-51.5, 51.9],
          [-55.9, 51.9]
        ]]
      }
    }
  ]
}
